UNKNOWN                 
1 87014U          26140.42394775  .00001606  00000+0  24809-2 0  9991
2 87014 100.4747 118.5130 0043062 212.7113 299.7965 13.52661881612362
UNKNOWN                 
1 87029U          26139.37471868  .00000949  00000+0  59852-3 0  9994
2 87029  98.7363 173.9542 0082723 166.7972 193.5388 14.04845848615134
UNKNOWN                 
1 87054U          26140.51701666  .00001136  00000+0  65306-3 0  9992
2 87054 100.0858  44.4428 0010906 284.7069  75.2889 14.11761944638729
UNKNOWN                 
1 87071U          26140.32548499  .00002233  00000+0  82245-3 0  9993
2 87071  61.2177 159.9006 0474528 317.1895  39.3070 13.86998843624477
UNKNOWN                 
1 87129U          26139.21164705  .00000107  00000+0  11009-2 0  9994
2 87129 102.2580 237.0287 0036768 153.3129 206.9837 12.42889301566235
UNKNOWN                 
1 87163U          26142.52348931  .00001132  00000+0  34619-3 0  9997
2 87163  65.5967 199.3430 0650619 353.0356   6.1973 13.64891022599450
UNKNOWN                 
1 87204U          26141.55088265  .00001241  00000+0  49208-3 0  9997
2 87204  98.5242   4.1513 0043855 213.0120 146.8323 14.30078261648277
UNKNOWN                 
1 87211U          26141.30842097  .00002007  00000+0  54866-3 0  9996
2 87211  99.0822 157.7452 0053322  45.9826 329.9310 14.47658475730852
