CCSDS_OMM_VERS = 2.0
CREATION_DATE  = 
ORIGINATOR     = 

OBJECT_NAME    = UNKNOWN
OBJECT_ID      = 
CENTER_NAME    = EARTH
REF_FRAME      = TEME
TIME_SYSTEM    = UTC
MEAN_ELEMENT_THEORY = SGP/SGP4

EPOCH          = 2026-05-20T10:10:29.085600
MEAN_MOTION    = 13.52661881
ECCENTRICITY   = .0043062
INCLINATION    = 100.4747
RA_OF_ASC_NODE = 118.5130
ARG_OF_PERICENTER = 212.7113
MEAN_ANOMALY   = 299.7965

EPHEMERIS_TYPE = 0
CLASSIFICATION_TYPE = U
NORAD_CAT_ID   = 87014
ELEMENT_SET_NO = 999
REV_AT_EPOCH   = 61236
BSTAR          = .24809E-2
MEAN_MOTION_DOT = .1606E-4
MEAN_MOTION_DDOT = 0

CCSDS_OMM_VERS = 2.0
CREATION_DATE  = 
ORIGINATOR     = 

OBJECT_NAME    = UNKNOWN
OBJECT_ID      = 
CENTER_NAME    = EARTH
REF_FRAME      = TEME
TIME_SYSTEM    = UTC
MEAN_ELEMENT_THEORY = SGP/SGP4

EPOCH          = 2026-05-19T08:59:35.693952
MEAN_MOTION    = 14.04845848
ECCENTRICITY   = .0082723
INCLINATION    = 98.7363
RA_OF_ASC_NODE = 173.9542
ARG_OF_PERICENTER = 166.7972
MEAN_ANOMALY   = 193.5388

EPHEMERIS_TYPE = 0
CLASSIFICATION_TYPE = U
NORAD_CAT_ID   = 87029
ELEMENT_SET_NO = 999
REV_AT_EPOCH   = 61513
BSTAR          = .59852E-3
MEAN_MOTION_DOT = .949E-5
MEAN_MOTION_DDOT = 0

CCSDS_OMM_VERS = 2.0
CREATION_DATE  = 
ORIGINATOR     = 

OBJECT_NAME    = UNKNOWN
OBJECT_ID      = 
CENTER_NAME    = EARTH
REF_FRAME      = TEME
TIME_SYSTEM    = UTC
MEAN_ELEMENT_THEORY = SGP/SGP4

EPOCH          = 2026-05-20T12:24:30.239424
MEAN_MOTION    = 14.11761944
ECCENTRICITY   = .0010906
INCLINATION    = 100.0858
RA_OF_ASC_NODE = 44.4428
ARG_OF_PERICENTER = 284.7069
MEAN_ANOMALY   = 75.2889

EPHEMERIS_TYPE = 0
CLASSIFICATION_TYPE = U
NORAD_CAT_ID   = 87054
ELEMENT_SET_NO = 999
REV_AT_EPOCH   = 63872
BSTAR          = .65306E-3
MEAN_MOTION_DOT = .1136E-4
MEAN_MOTION_DDOT = 0

CCSDS_OMM_VERS = 2.0
CREATION_DATE  = 
ORIGINATOR     = 

OBJECT_NAME    = UNKNOWN
OBJECT_ID      = 
CENTER_NAME    = EARTH
REF_FRAME      = TEME
TIME_SYSTEM    = UTC
MEAN_ELEMENT_THEORY = SGP/SGP4

EPOCH          = 2026-05-20T07:48:41.903136
MEAN_MOTION    = 13.86998843
ECCENTRICITY   = .0474528
INCLINATION    = 61.2177
RA_OF_ASC_NODE = 159.9006
ARG_OF_PERICENTER = 317.1895
MEAN_ANOMALY   = 39.3070

EPHEMERIS_TYPE = 0
CLASSIFICATION_TYPE = U
NORAD_CAT_ID   = 87071
ELEMENT_SET_NO = 999
REV_AT_EPOCH   = 62447
BSTAR          = .82245E-3
MEAN_MOTION_DOT = .2233E-4
MEAN_MOTION_DDOT = 0

CCSDS_OMM_VERS = 2.0
CREATION_DATE  = 
ORIGINATOR     = 

OBJECT_NAME    = UNKNOWN
OBJECT_ID      = 
CENTER_NAME    = EARTH
REF_FRAME      = TEME
TIME_SYSTEM    = UTC
MEAN_ELEMENT_THEORY = SGP/SGP4

EPOCH          = 2026-05-19T05:04:46.305120
MEAN_MOTION    = 12.42889301
ECCENTRICITY   = .0036768
INCLINATION    = 102.2580
RA_OF_ASC_NODE = 237.0287
ARG_OF_PERICENTER = 153.3129
MEAN_ANOMALY   = 206.9837

EPHEMERIS_TYPE = 0
CLASSIFICATION_TYPE = U
NORAD_CAT_ID   = 87129
ELEMENT_SET_NO = 999
REV_AT_EPOCH   = 56623
BSTAR          = .11009E-2
MEAN_MOTION_DOT = .107E-5
MEAN_MOTION_DDOT = 0

CCSDS_OMM_VERS = 2.0
CREATION_DATE  = 
ORIGINATOR     = 

OBJECT_NAME    = UNKNOWN
OBJECT_ID      = 
CENTER_NAME    = EARTH
REF_FRAME      = TEME
TIME_SYSTEM    = UTC
MEAN_ELEMENT_THEORY = SGP/SGP4

EPOCH          = 2026-05-22T12:33:49.476384
MEAN_MOTION    = 13.64891022
ECCENTRICITY   = .0650619
INCLINATION    = 65.5967
RA_OF_ASC_NODE = 199.3430
ARG_OF_PERICENTER = 353.0356
MEAN_ANOMALY   = 6.1973

EPHEMERIS_TYPE = 0
CLASSIFICATION_TYPE = U
NORAD_CAT_ID   = 87163
ELEMENT_SET_NO = 999
REV_AT_EPOCH   = 59945
BSTAR          = .34619E-3
MEAN_MOTION_DOT = .1132E-4
MEAN_MOTION_DDOT = 0

CCSDS_OMM_VERS = 2.0
CREATION_DATE  = 
ORIGINATOR     = 

OBJECT_NAME    = UNKNOWN
OBJECT_ID      = 
CENTER_NAME    = EARTH
REF_FRAME      = TEME
TIME_SYSTEM    = UTC
MEAN_ELEMENT_THEORY = SGP/SGP4

EPOCH          = 2026-05-21T13:13:16.260960
MEAN_MOTION    = 14.30078261
ECCENTRICITY   = .0043855
INCLINATION    = 98.5242
RA_OF_ASC_NODE = 4.1513
ARG_OF_PERICENTER = 213.0120
MEAN_ANOMALY   = 146.8323

EPHEMERIS_TYPE = 0
CLASSIFICATION_TYPE = U
NORAD_CAT_ID   = 87204
ELEMENT_SET_NO = 999
REV_AT_EPOCH   = 64827
BSTAR          = .49208E-3
MEAN_MOTION_DOT = .1241E-4
MEAN_MOTION_DDOT = 0

CCSDS_OMM_VERS = 2.0
CREATION_DATE  = 
ORIGINATOR     = 

OBJECT_NAME    = UNKNOWN
OBJECT_ID      = 
CENTER_NAME    = EARTH
REF_FRAME      = TEME
TIME_SYSTEM    = UTC
MEAN_ELEMENT_THEORY = SGP/SGP4

EPOCH          = 2026-05-21T07:24:07.571808
MEAN_MOTION    = 14.47658475
ECCENTRICITY   = .0053322
INCLINATION    = 99.0822
RA_OF_ASC_NODE = 157.7452
ARG_OF_PERICENTER = 45.9826
MEAN_ANOMALY   = 329.9310

EPHEMERIS_TYPE = 0
CLASSIFICATION_TYPE = U
NORAD_CAT_ID   = 87211
ELEMENT_SET_NO = 999
REV_AT_EPOCH   = 73085
BSTAR          = .54866E-3
MEAN_MOTION_DOT = .2007E-4
MEAN_MOTION_DDOT = 0

